ONEWEB-0603             
1 54667U 22166AB  23254.59336590 -.00000034  00000+0 -11325-3 0  9994
2 54667  87.9172  84.9899 0001172  97.3754 262.7513 13.21824144 38565
ONEWEB-0604             
1 54668U 22166AC  23254.58074998  .00000015  00000+0  57667-5 0  9993
2 54668  87.9166  84.9926 0001349 109.6769 250.4510 13.21823520 38062
ONEWEB-0605             
1 54669U 22166AD  23254.57445363 -.00000164  00000+0 -42956-3 0  9991
2 54669  87.9180  85.0123 0001238  75.1612 284.9659 13.21828312 38601
ONEWEB-0606             
1 54670U 22166AE  23254.59654899  .00000018  00000+0  11562-4 0  9997
2 54670  87.9170  84.9987 0002027  81.1446 278.9917 13.21824324 38651
ONEWEB-0607             
1 54671U 22166AF  23254.56184473  .00000023  00000+0  24351-4 0  9997
2 54671  87.9164  84.9966 0001462  89.8659 270.2642 13.21828095 38160
ONEWEB-0608             
1 54672U 22166AG  23254.56815297  .00000203  00000+0  46098-3 0  9994
2 54672  87.9173  84.9961 0000982  80.3516 279.7728 13.21827072 38174
ONEWEB-0610             
1 54673U 22166AH  23254.54922541  .00000055  00000+0  10074-3 0  9994
2 54673  87.9173  84.9984 0001049  87.8722 272.2532 13.21827908 38074
ONEWEB-0611             
1 54674U 22166AJ  23254.54290657  .00000085  00000+0  17501-3 0  9996
2 54674  87.9171  85.0025 0002230  88.2764 271.8625 13.21826906 38069
